{
  "type": "FeatureCollection",
  "features": [
    {
      "type": "Feature",
      "properties": {
        "norad_id": 66792,
        "name": "STARLINK-35990",
        "group": "last-30-days",
        "lat": -34.93560971753891,
        "lon": 72.3540002666866,
        "alt_km": 385.09729414582125,
        "timestamp": "2025-12-20T16:47:35.023958+00:00",
        "meta_object_name": "STARLINK-35990",
        "meta_object_id": "2025-278B",
        "meta_epoch": "2025-12-20T12:00:02.000160",
        "meta_mean_motion": 15.62428556,
        "meta_eccentricity": 0.0001365,
        "meta_inclination": 42.9993,
        "meta_ra_of_asc_node": 204.9828,
        "meta_arg_of_pericenter": 260.5554,
        "meta_mean_anomaly": 292.3031,
        "meta_ephemeris_type": 0,
        "meta_classification_type": "U",
        "meta_norad_cat_id": 66792,
        "meta_element_set_no": 999,
        "meta_rev_at_epoch": 420,
        "meta_bstar": -0.024122,
        "meta_mean_motion_dot": -0.01942052,
        "meta_mean_motion_ddot": 0,
        "tle_line1": "1 66792U 25278B   25354.50002315 -.01942052  00000+0 -24122-1 0  9995",
        "tle_line2": "2 66792  42.9993 204.9828 0001365 260.5554 292.3031 15.62428556  4203"
      },
      "geometry": {
        "type": "Point",
        "coordinates": [
          72.3540002666866,
          -34.93560971753891
        ]
      }
    },
    {
      "type": "Feature",
      "properties": {
        "norad_id": 66793,
        "name": "STARLINK-36051",
        "group": "last-30-days",
        "lat": -36.59084559159655,
        "lon": 76.60522949180073,
        "alt_km": 385.1648560640833,
        "timestamp": "2025-12-20T16:47:35.023976+00:00",
        "meta_object_name": "STARLINK-36051",
        "meta_object_id": "2025-278C",
        "meta_epoch": "2025-12-20T12:00:02.000160",
        "meta_mean_motion": 15.6242964,
        "meta_eccentricity": 0.0001327,
        "meta_inclination": 42.999,
        "meta_ra_of_asc_node": 204.973,
        "meta_arg_of_pericenter": 257.4485,
        "meta_mean_anomaly": 299.2456,
        "meta_ephemeris_type": 0,
        "meta_classification_type": "U",
        "meta_norad_cat_id": 66793,
        "meta_element_set_no": 999,
        "meta_rev_at_epoch": 410,
        "meta_bstar": -0.02417,
        "meta_mean_motion_dot": -0.01945455,
        "meta_mean_motion_ddot": 0,
        "tle_line1": "1 66793U 25278C   25354.50002315 -.01945455  00000+0 -24170-1 0  9999",
        "tle_line2": "2 66793  42.9990 204.9730 0001327 257.4485 299.2456 15.62429640  4100"
      },
      "geometry": {
        "type": "Point",
        "coordinates": [
          76.60522949180073,
          -36.59084559159655
        ]
      }
    },
    {
      "type": "Feature",
      "properties": {
        "norad_id": 66794,
        "name": "STARLINK-36062",
        "group": "last-30-days",
        "lat": -35.78118105077524,
        "lon": 74.45490706686383,
        "alt_km": 385.18829655005175,
        "timestamp": "2025-12-20T16:47:35.023987+00:00",
        "meta_object_name": "STARLINK-36062",
        "meta_object_id": "2025-278D",
        "meta_epoch": "2025-12-20T12:00:02.000160",
        "meta_mean_motion": 15.62423372,
        "meta_eccentricity": 0.0001296,
        "meta_inclination": 42.9991,
        "meta_ra_of_asc_node": 204.9774,
        "meta_arg_of_pericenter": 262.0879,
        "meta_mean_anomaly": 292.6897,
        "meta_ephemeris_type": 0,
        "meta_classification_type": "U",
        "meta_norad_cat_id": 66794,
        "meta_element_set_no": 999,
        "meta_rev_at_epoch": 420,
        "meta_bstar": -0.024024,
        "meta_mean_motion_dot": -0.01934708,
        "meta_mean_motion_ddot": 0,
        "tle_line1": "1 66794U 25278D   25354.50002315 -.01934708  00000+0 -24024-1 0  9997",
        "tle_line2": "2 66794  42.9991 204.9774 0001296 262.0879 292.6897 15.62423372  4207"
      },
      "geometry": {
        "type": "Point",
        "coordinates": [
          74.45490706686383,
          -35.78118105077524
        ]
      }
    },
    {
      "type": "Feature",
      "properties": {
        "norad_id": 66795,
        "name": "STARLINK-36047",
        "group": "last-30-days",
        "lat": -37.359280435569225,
        "lon": 78.79401876191751,
        "alt_km": 385.231887997551,
        "timestamp": "2025-12-20T16:47:35.023997+00:00",
        "meta_object_name": "STARLINK-36047",
        "meta_object_id": "2025-278E",
        "meta_epoch": "2025-12-20T12:00:02.000160",
        "meta_mean_motion": 15.6242513,
        "meta_eccentricity": 0.0001277,
        "meta_inclination": 42.9992,
        "meta_ra_of_asc_node": 204.9682,
        "meta_arg_of_pericenter": 257.8957,
        "meta_mean_anomaly": 300.7158,
        "meta_ephemeris_type": 0,
        "meta_classification_type": "U",
        "meta_norad_cat_id": 66795,
        "meta_element_set_no": 999,
        "meta_rev_at_epoch": 410,
        "meta_bstar": -0.024065,
        "meta_mean_motion_dot": -0.01937702,
        "meta_mean_motion_ddot": 0,
        "tle_line1": "1 66795U 25278E   25354.50002315 -.01937702  00000+0 -24065-1 0  9990",
        "tle_line2": "2 66795  42.9992 204.9682 0001277 257.8957 300.7158 15.62425130  4109"
      },
      "geometry": {
        "type": "Point",
        "coordinates": [
          78.79401876191751,
          -37.359280435569225
        ]
      }
    },
    {
      "type": "Feature",
      "properties": {
        "norad_id": 66796,
        "name": "STARLINK-35964",
        "group": "last-30-days",
        "lat": 19.620109750149034,
        "lon": -0.30718858108157004,
        "alt_km": 324.21445248614145,
        "timestamp": "2025-12-20T16:47:35.024010+00:00",
        "meta_object_name": "STARLINK-35964",
        "meta_object_id": "2025-278F",
        "meta_epoch": "2025-12-20T07:03:49.254048",
        "meta_mean_motion": 15.80988315,
        "meta_eccentricity": 0.0001131,
        "meta_inclination": 42.9916,
        "meta_ra_of_asc_node": 204.6747,
        "meta_arg_of_pericenter": 278.4624,
        "meta_mean_anomaly": 81.6119,
        "meta_ephemeris_type": 0,
        "meta_classification_type": "U",
        "meta_norad_cat_id": 66796,
        "meta_element_set_no": 999,
        "meta_rev_at_epoch": 304,
        "meta_bstar": 0.0017137,
        "meta_mean_motion_dot": 0.00358161,
        "meta_mean_motion_ddot": 0,
        "tle_line1": "1 66796U 25278F   25354.29432007  .00358161  00000+0  17137-2 0  9998",
        "tle_line2": "2 66796  42.9916 204.6747 0001131 278.4624  81.6119 15.80988315  3047"
      },
      "geometry": {
        "type": "Point",
        "coordinates": [
          -0.30718858108157004,
          19.620109750149034
        ]
      }
    },
    {
      "type": "Feature",
      "properties": {
        "norad_id": 66797,
        "name": "STARLINK-36099",
        "group": "last-30-days",
        "lat": -38.7710610489716,
        "lon": 83.30668105982693,
        "alt_km": 385.2756778541843,
        "timestamp": "2025-12-20T16:47:35.024023+00:00",
        "meta_object_name": "STARLINK-36099",
        "meta_object_id": "2025-278G",
        "meta_epoch": "2025-12-20T12:00:02.000160",
        "meta_mean_motion": 15.62425046,
        "meta_eccentricity": 0.0001298,
        "meta_inclination": 42.9994,
        "meta_ra_of_asc_node": 204.9583,
        "meta_arg_of_pericenter": 258.9607,
        "meta_mean_anomaly": 303.4855,
        "meta_ephemeris_type": 0,
        "meta_classification_type": "U",
        "meta_norad_cat_id": 66797,
        "meta_element_set_no": 999,
        "meta_rev_at_epoch": 426,
        "meta_bstar": -0.024069,
        "meta_mean_motion_dot": -0.01937972,
        "meta_mean_motion_ddot": 0,
        "tle_line1": "1 66797U 25278G   25354.50002315 -.01937972  00000+0 -24069-1 0  9995",
        "tle_line2": "2 66797  42.9994 204.9583 0001298 258.9607 303.4855 15.62425046  4267"
      },
      "geometry": {
        "type": "Point",
        "coordinates": [
          83.30668105982693,
          -38.7710610489716
        ]
      }
    },
    {
      "type": "Feature",
      "properties": {
        "norad_id": 66798,
        "name": "STARLINK-36041",
        "group": "last-30-days",
        "lat": -39.40944138499069,
        "lon": 85.62517380345844,
        "alt_km": 385.2639150784589,
        "timestamp": "2025-12-20T16:47:35.024033+00:00",
        "meta_object_name": "STARLINK-36041",
        "meta_object_id": "2025-278H",
        "meta_epoch": "2025-12-20T12:00:02.000160",
        "meta_mean_motion": 15.62425424,
        "meta_eccentricity": 0.0001328,
        "meta_inclination": 42.9995,
        "meta_ra_of_asc_node": 204.9532,
        "meta_arg_of_pericenter": 255.2229,
        "meta_mean_anomaly": 309.1368,
        "meta_ephemeris_type": 0,
        "meta_classification_type": "U",
        "meta_norad_cat_id": 66798,
        "meta_element_set_no": 999,
        "meta_rev_at_epoch": 404,
        "meta_bstar": -0.024035,
        "meta_mean_motion_dot": -0.01935605,
        "meta_mean_motion_ddot": 0,
        "tle_line1": "1 66798U 25278H   25354.50002315 -.01935605  00000+0 -24035-1 0  9990",
        "tle_line2": "2 66798  42.9995 204.9532 0001328 255.2229 309.1368 15.62425424  4045"
      },
      "geometry": {
        "type": "Point",
        "coordinates": [
          85.62517380345844,
          -39.40944138499069
        ]
      }
    }
  ]
}